start=new Date('2022-11-02T00:00:00.000Z').valueOf();
sats=[{"EPOCH":"2022-11-01T16:25:52.358592","REF_FRAME":"TEME","GP_ID":"216687494","SEMIMAJOR_AXIS":"6917.894","COUNTRY_CODE":"US","TLE_LINE1":"1 51128U 22005AA  22305.68463378  .00001157  00000-0  90783-4 0  9998","MEAN_MOTION_DDOT":"0.0000000000000","REV_AT_EPOCH":"4394","TLE_LINE2":"2 51128  53.2185  33.9087 0002068  44.2597 315.8560 15.08835677 43948","MEAN_ELEMENT_THEORY":"SGP4","MEAN_MOTION_DOT":"0.00001157","ECCENTRICITY":"0.00020680","BSTAR":"0.00009078300000","OBJECT_ID":"2022-005AA","DECAY_DATE":null,"PERIAPSIS":"538.328","ARG_OF_PERICENTER":"44.2597","OBJECT_TYPE":"PAYLOAD","LAUNCH_DATE":"2022-01-19","INCLINATION":"53.2185","RA_OF_ASC_NODE":"33.9087","MEAN_MOTION":"15.08835677","SITE":"AFETR","MEAN_ANOMALY":"315.8560","ELEMENT_SET_NO":"999","TIME_SYSTEM":"UTC","EPHEMERIS_TYPE":"0","CLASSIFICATION_TYPE":"U","RCS_SIZE":"LARGE","OBJECT_NAME":"STARLINK-3400","PERIOD":"95.438","CENTER_NAME":"EARTH","NORAD_CAT_ID":"51128","FILE":"3640431","APOAPSIS":"541.189"},{"MEAN_MOTION_DOT":"0.00000247","ECCENTRICITY":"0.00023550","BSTAR":"0.00003363100000","OBJECT_ID":"2022-005AB","DECAY_DATE":null,"REF_FRAME":"TEME","EPOCH":"2022-11-01T15:28:58.207296","GP_ID":"216685746","SEMIMAJOR_AXIS":"6917.943","COUNTRY_CODE":"US","TLE_LINE1":"1 51129U 22005AB  22305.64511814  .00000247  00000-0  33631-4 0  9992","MEAN_MOTION_DDOT":"0.0000000000000","TLE_LINE2":"2 51129  53.2182  34.0782 0002355  25.9672 334.1438 15.08819439 43945","REV_AT_EPOCH":"4394","MEAN_ELEMENT_THEORY":"SGP4","ELEMENT_SET_NO":"999","TIME_SYSTEM":"UTC","CLASSIFICATION_TYPE":"U","EPHEMERIS_TYPE":"0","OBJECT_NAME":"STARLINK-3396","RCS_SIZE":"LARGE","PERIOD":"95.439","CENTER_NAME":"EARTH","NORAD_CAT_ID":"51129","FILE":"3640431","APOAPSIS":"541.437","ARG_OF_PERICENTER":"25.9672","PERIAPSIS":"538.179","OBJECT_TYPE":"PAYLOAD","LAUNCH_DATE":"2022-01-19","INCLINATION":"53.2182","MEAN_MOTION":"15.08819439","RA_OF_ASC_NODE":"34.0782","SITE":"AFETR","MEAN_ANOMALY":"334.1438"},{"REF_FRAME":"TEME","EPOCH":"2022-11-01T18:17:08.483136","GP_ID":"216685996","SEMIMAJOR_AXIS":"6917.872","COUNTRY_CODE":"US","TLE_LINE1":"1 51130U 22005AC  22305.76190374  .00003640  00000-0  24667-3 0  9999","MEAN_MOTION_DDOT":"0.0000000000000","TLE_LINE2":"2 51130  53.2167  33.5586 0002549  30.1049 330.0089 15.08842904 43958","REV_AT_EPOCH":"4395","MEAN_ELEMENT_THEORY":"SGP4","MEAN_MOTION_DOT":"0.00003640","ECCENTRICITY":"0.00025490","BSTAR":"0.00024667000000","OBJECT_ID":"2022-005AC","DECAY_DATE":null,"ARG_OF_PERICENTER":"30.1049","PERIAPSIS":"537.973","OBJECT_TYPE":"PAYLOAD","LAUNCH_DATE":"2022-01-19","INCLINATION":"53.2167","MEAN_MOTION":"15.08842904","RA_OF_ASC_NODE":"33.5586","SITE":"AFETR","MEAN_ANOMALY":"330.0089","TIME_SYSTEM":"UTC","ELEMENT_SET_NO":"999","CLASSIFICATION_TYPE":"U","EPHEMERIS_TYPE":"0","OBJECT_NAME":"STARLINK-3395","RCS_SIZE":"LARGE","CENTER_NAME":"EARTH","PERIOD":"95.437","NORAD_CAT_ID":"51130","FILE":"3640431","APOAPSIS":"541.500"},{"SEMIMAJOR_AXIS":"6917.897","GP_ID":"216686745","REF_FRAME":"TEME","EPOCH":"2022-11-01T18:06:33.609888","TLE_LINE1":"1 51131U 22005AD  22305.75455567  .00000793  00000-0  67936-4 0  9990","MEAN_MOTION_DDOT":"0.0000000000000","COUNTRY_CODE":"US","TLE_LINE2":"2 51131  53.2183  33.5920 0002602  32.8400 327.2754 15.08834668 43954","REV_AT_EPOCH":"4395","MEAN_ELEMENT_THEORY":"SGP4","ECCENTRICITY":"0.00026020","MEAN_MOTION_DOT":"0.00000793","BSTAR":"0.00006793600000","DECAY_DATE":null,"OBJECT_ID":"2022-005AD","ARG_OF_PERICENTER":"32.8400","PERIAPSIS":"537.962","INCLINATION":"53.2183","LAUNCH_DATE":"2022-01-19","OBJECT_TYPE":"PAYLOAD","SITE":"AFETR","MEAN_MOTION":"15.08834668","RA_OF_ASC_NODE":"33.5920","MEAN_ANOMALY":"327.2754","CLASSIFICATION_TYPE":"U","EPHEMERIS_TYPE":"0","TIME_SYSTEM":"UTC","ELEMENT_SET_NO":"999","OBJECT_NAME":"STARLINK-3388","RCS_SIZE":"LARGE","PERIOD":"95.438","CENTER_NAME":"EARTH","NORAD_CAT_ID":"51131","APOAPSIS":"541.562","FILE":"3640431"},{"BSTAR":"0.00019563000000","DECAY_DATE":null,"OBJECT_ID":"2022-005AE","ECCENTRICITY":"0.00029340","MEAN_MOTION_DOT":"0.00002826","TLE_LINE2":"2 51132  53.2168  33.8778 0002934  28.7996 331.3158 15.08833701 43944","REV_AT_EPOCH":"4394","MEAN_ELEMENT_THEORY":"SGP4","SEMIMAJOR_AXIS":"6917.900","GP_ID":"216686994","REF_FRAME":"TEME","EPOCH":"2022-11-01T16:36:28.640160","TLE_LINE1":"1 51132U 22005AE  22305.69199815  .00002826  00000-0  19563-3 0  9996","MEAN_MOTION_DDOT":"0.0000000000000","COUNTRY_CODE":"US","PERIOD":"95.438","NORAD_CAT_ID":"51132","CENTER_NAME":"EARTH","APOAPSIS":"541.794","FILE":"3640431","CLASSIFICATION_TYPE":"U","EPHEMERIS_TYPE":"0","ELEMENT_SET_NO":"999","TIME_SYSTEM":"UTC","OBJECT_NAME":"STARLINK-3393","RCS_SIZE":"LARGE","SITE":"AFETR","MEAN_MOTION":"15.08833701","RA_OF_ASC_NODE":"33.8778","MEAN_ANOMALY":"331.3158","ARG_OF_PERICENTER":"28.7996","PERIAPSIS":"537.735","LAUNCH_DATE":"2022-01-19","INCLINATION":"53.2168","OBJECT_TYPE":"PAYLOAD"},{"BSTAR":"0.00003054700000","OBJECT_ID":"2022-005AF","DECAY_DATE":null,"MEAN_MOTION_DOT":"0.00000198","ECCENTRICITY":"0.00019710","TLE_LINE2":"2 51133  53.2176  35.1100 0001971  34.7196 325.3924 15.08828535 45021","REV_AT_EPOCH":"4502","MEAN_ELEMENT_THEORY":"SGP4","REF_FRAME":"TEME","EPOCH":"2022-11-01T09:59:01.961952","GP_ID":"216629552","SEMIMAJOR_AXIS":"6917.915","COUNTRY_CODE":"US","MEAN_MOTION_DDOT":"0.0000000000000","TLE_LINE1":"1 51133U 22005AF  22305.41599493  .00000198  00000-0  30547-4 0  9999","CENTER_NAME":"EARTH","PERIOD":"95.438","NORAD_CAT_ID":"51133","FILE":"3640053","APOAPSIS":"541.144","TIME_SYSTEM":"UTC","ELEMENT_SET_NO":"999","CLASSIFICATION_TYPE":"U","EPHEMERIS_TYPE":"0","OBJECT_NAME":"STARLINK-3356","RCS_SIZE":"LARGE","MEAN_MOTION":"15.08828535","RA_OF_ASC_NODE":"35.1100","SITE":"AFETR","MEAN_ANOMALY":"325.3924","ARG_OF_PERICENTER":"34.7196","PERIAPSIS":"538.417","OBJECT_TYPE":"PAYLOAD","INCLINATION":"53.2176","LAUNCH_DATE":"2022-01-19"},{"TLE_LINE2":"2 51134  53.2194  24.0418 0002958  20.9569 339.1544 15.08834345 44091","REV_AT_EPOCH":"4409","MEAN_ELEMENT_THEORY":"SGP4","REF_FRAME":"TEME","EPOCH":"2022-11-01T15:35:35.461536","SEMIMAJOR_AXIS":"6917.898","GP_ID":"216686497","COUNTRY_CODE":"US","MEAN_MOTION_DDOT":"0.0000000000000","TLE_LINE1":"1 51134U 22005AG  22305.64971599 -.00000106  00000-0  11473-4 0  9993","BSTAR":"0.00001147300000","OBJECT_ID":"2022-005AG","DECAY_DATE":null,"MEAN_MOTION_DOT":"-0.00000106","ECCENTRICITY":"0.00029580","MEAN_MOTION":"15.08834345","RA_OF_ASC_NODE":"24.0418","SITE":"AFETR","MEAN_ANOMALY":"339.1544","ARG_OF_PERICENTER":"20.9569","PERIAPSIS":"537.716","OBJECT_TYPE":"PAYLOAD","INCLINATION":"53.2194","LAUNCH_DATE":"2022-01-19","CENTER_NAME":"EARTH","PERIOD":"95.438","NORAD_CAT_ID":"51134","FILE":"3640431","APOAPSIS":"541.809","ELEMENT_SET_NO":"999","TIME_SYSTEM":"UTC","CLASSIFICATION_TYPE":"U","EPHEMERIS_TYPE":"0","OBJECT_NAME":"STARLINK-3183","RCS_SIZE":"LARGE"},{"MEAN_MOTION_DOT":"0.00000559","ECCENTRICITY":"0.00020920","OBJECT_ID":"2022-005AH","DECAY_DATE":null,"BSTAR":"0.00005326700000","COUNTRY_CODE":"US","MEAN_MOTION_DDOT":"0.0000000000000","TLE_LINE1":"1 51135U 22005AH  22305.67726594  .00000559  00000-0  53267-4 0  9998","EPOCH":"2022-11-01T16:15:15.777216","REF_FRAME":"TEME","GP_ID":"216687246","SEMIMAJOR_AXIS":"6917.905","MEAN_ELEMENT_THEORY":"SGP4","REV_AT_EPOCH":"4394","TLE_LINE2":"2 51135  53.2190  33.9399 0002092  36.3591 323.7543 15.08831923 43940","RCS_SIZE":"LARGE","OBJECT_NAME":"STARLINK-3363","ELEMENT_SET_NO":"999","TIME_SYSTEM":"UTC","EPHEMERIS_TYPE":"0","CLASSIFICATION_TYPE":"U","FILE":"3640431","APOAPSIS":"541.217","NORAD_CAT_ID":"51135","PERIOD":"95.438","CENTER_NAME":"EARTH","OBJECT_TYPE":"PAYLOAD","INCLINATION":"53.2190","LAUNCH_DATE":"2022-01-19","PERIAPSIS":"538.323","ARG_OF_PERICENTER":"36.3591","MEAN_ANOMALY":"323.7543","RA_OF_ASC_NODE":"33.9399","MEAN_MOTION":"15.08831923","SITE":"AFETR"},{"OBJECT_ID":"2022-005AJ","DECAY_DATE":null,"BSTAR":"0.00015133000000","MEAN_MOTION_DOT":"0.00002121","ECCENTRICITY":"0.00026150","MEAN_ELEMENT_THEORY":"SGP4","TLE_LINE2":"2 51136  53.2180  33.6334 0002615  26.4002 333.7122 15.08849165 43956","REV_AT_EPOCH":"4395","COUNTRY_CODE":"US","TLE_LINE1":"1 51136U 22005AJ  22305.74446435  .00002121  00000-0  15133-3 0  9996","MEAN_MOTION_DDOT":"0.0000000000000","REF_FRAME":"TEME","EPOCH":"2022-11-01T17:52:01.719840","SEMIMAJOR_AXIS":"6917.852","GP_ID":"216687495","FILE":"3640431","APOAPSIS":"541.526","CENTER_NAME":"EARTH","PERIOD":"95.437","NORAD_CAT_ID":"51136","OBJECT_NAME":"STARLINK-3253","RCS_SIZE":"LARGE","TIME_SYSTEM":"UTC","ELEMENT_SET_NO":"999","CLASSIFICATION_TYPE":"U","EPHEMERIS_TYPE":"0","MEAN_ANOMALY":"333.7122","MEAN_MOTION":"15.08849165","RA_OF_ASC_NODE":"33.6334","SITE":"AFETR","OBJECT_TYPE":"PAYLOAD","INCLINATION":"53.2180","LAUNCH_DATE":"2022-01-19","ARG_OF_PERICENTER":"26.4002","PERIAPSIS":"537.908"},{"PERIAPSIS":"538.174","ARG_OF_PERICENTER":"32.0783","INCLINATION":"53.2185","LAUNCH_DATE":"2022-01-19","OBJECT_TYPE":"PAYLOAD","SITE":"AFETR","RA_OF_ASC_NODE":"35.1793","MEAN_MOTION":"15.08834389","MEAN_ANOMALY":"328.0348","EPHEMERIS_TYPE":"0","CLASSIFICATION_TYPE":"U","ELEMENT_SET_NO":"999","TIME_SYSTEM":"UTC","RCS_SIZE":"MEDIUM","OBJECT_NAME":"STARLINK-3180","NORAD_CAT_ID":"51137","PERIOD":"95.438","CENTER_NAME":"EARTH","APOAPSIS":"541.351","FILE":"3640409","SEMIMAJOR_AXIS":"6917.898","GP_ID":"216660506","EPOCH":"2022-11-01T09:37:50.149632","REF_FRAME":"TEME","TLE_LINE1":"1 51137U 22005AK  22305.40127488  .00001633  00000-0  12069-3 0  9996","MEAN_MOTION_DDOT":"0.0000000000000","COUNTRY_CODE":"US","REV_AT_EPOCH":"4391","TLE_LINE2":"2 51137  53.2185  35.1793 0002296  32.0783 328.0348 15.08834389 43917","MEAN_ELEMENT_THEORY":"SGP4","ECCENTRICITY":"0.00022960","MEAN_MOTION_DOT":"0.00001633","BSTAR":"0.00012069000000","DECAY_DATE":null,"OBJECT_ID":"2022-005AK"}];
